COSMOS 2242             
1 22626U 93024A   26079.93544148  .00001742  00000+0  15051-3 0  9996
2 22626  82.5153 255.9566 0014937 267.5411  92.4101 14.96593082782070
SL-16 R/B               
1 22803U 93059B   26079.98164462  .00000205  00000+0  12507-3 0  9999
2 22803  70.9931 347.3157 0017878 200.1451 159.8969 14.17234272681139
ARIANE 40 R/B           
1 22830U 93061H   26079.66194367  .00000174  00000+0  79656-4 0  9998
2 22830  98.4895 148.3320 0009651 248.7509 111.2645 14.32866309695672
COSMOS 2278             
1 23087U 94023A   26079.91348285 -.00000206  00000+0 -82846-4 0  9993
2 23087  71.0538 151.6180 0008791 354.4084   5.6939 14.14378232646396
SL-16 R/B               
1 23088U 94023B   26079.95492692  .00000084  00000+0  67955-4 0  9996
2 23088  70.9996  47.2268 0005490 274.6545  85.3950 14.15010446647680
SL-16 R/B               
1 23343U 94074B   26079.95394213  .00000386  00000+0  58273-4 0  9994
2 23343  97.7094 110.3149 0006680 172.0024 252.5735 14.79420003688919
SL-16 R/B               
1 23405U 94077B   26079.93215566  .00000274  00000+0  16422-3 0  9992
2 23405  70.9848 328.8389 0002433 200.0078 160.0950 14.15566609617820
ARIANE 40+ R/B          
1 23561U 95021B   26079.43984918  .00000229  00000+0  86752-4 0  9998
2 23561  98.4477 150.7758 0007937 108.5442 262.0067 14.39779567620796
SL-16 R/B               
1 23705U 95058B   26079.93967886 -.00000010  00000+0  19016-4 0  9996
2 23705  71.0221 156.6378 0010249 105.0048 255.2210 14.15500850569446
SL-16 R/B               
1 24298U 96051B   26079.50589006  .00000100  00000+0  80578-4 0  9995
2 24298  70.7598 152.3468 0014163 131.0407 229.1940 14.12418531523178
ORBVIEW 2 (SEASTAR)     
1 24883U 97037A   26079.91869651  .00000219  00000+0  92284-4 0  9990
2 24883  98.8585 244.5290 0002747  48.1543 311.9876 14.35502369510088
SL-16 R/B               
1 25400U 98043G   26079.88755704  .00000045  00000+0  37825-4 0  9990
2 25400  98.8274  33.3315 0009627 348.4017  11.6939 14.26052163440580
