CCSDS_OMM_VERS = 2.0
CREATION_DATE  = 
ORIGINATOR     = 

OBJECT_NAME    = COSMOS 2242
OBJECT_ID      = 1993-024A
CENTER_NAME    = EARTH
REF_FRAME      = TEME
TIME_SYSTEM    = UTC
MEAN_ELEMENT_THEORY = SGP/SGP4

EPOCH          = 2026-03-20T22:27:02.143872
MEAN_MOTION    = 14.96593082
ECCENTRICITY   = .00149371
INCLINATION    = 82.5153
RA_OF_ASC_NODE = 255.9566
ARG_OF_PERICENTER = 267.5411
MEAN_ANOMALY   = 92.4101

EPHEMERIS_TYPE = 0
CLASSIFICATION_TYPE = U
NORAD_CAT_ID   = 22626
ELEMENT_SET_NO = 999
REV_AT_EPOCH   = 78207
BSTAR          = .15050824E-3
MEAN_MOTION_DOT = .1742E-4
MEAN_MOTION_DDOT = 0

CCSDS_OMM_VERS = 2.0
CREATION_DATE  = 
ORIGINATOR     = 

OBJECT_NAME    = SL-16 R/B
OBJECT_ID      = 1993-059B
CENTER_NAME    = EARTH
REF_FRAME      = TEME
TIME_SYSTEM    = UTC
MEAN_ELEMENT_THEORY = SGP/SGP4

EPOCH          = 2026-03-20T23:33:34.095168
MEAN_MOTION    = 14.17234272
ECCENTRICITY   = .0017878
INCLINATION    = 70.9931
RA_OF_ASC_NODE = 347.3157
ARG_OF_PERICENTER = 200.1451
MEAN_ANOMALY   = 159.8969

EPHEMERIS_TYPE = 0
CLASSIFICATION_TYPE = U
NORAD_CAT_ID   = 22803
ELEMENT_SET_NO = 999
REV_AT_EPOCH   = 68113
BSTAR          = .12507338E-3
MEAN_MOTION_DOT = .205E-5
MEAN_MOTION_DDOT = 0

CCSDS_OMM_VERS = 2.0
CREATION_DATE  = 
ORIGINATOR     = 

OBJECT_NAME    = ARIANE 40 R/B
OBJECT_ID      = 1993-061H
CENTER_NAME    = EARTH
REF_FRAME      = TEME
TIME_SYSTEM    = UTC
MEAN_ELEMENT_THEORY = SGP/SGP4

EPOCH          = 2026-03-20T15:53:11.933088
MEAN_MOTION    = 14.32866309
ECCENTRICITY   = .00096517
INCLINATION    = 98.4895
RA_OF_ASC_NODE = 148.3320
ARG_OF_PERICENTER = 248.7509
MEAN_ANOMALY   = 111.2645

EPHEMERIS_TYPE = 0
CLASSIFICATION_TYPE = U
NORAD_CAT_ID   = 22830
ELEMENT_SET_NO = 999
REV_AT_EPOCH   = 69567
BSTAR          = .79655697E-4
MEAN_MOTION_DOT = .174E-5
MEAN_MOTION_DDOT = 0

CCSDS_OMM_VERS = 2.0
CREATION_DATE  = 
ORIGINATOR     = 

OBJECT_NAME    = COSMOS 2278
OBJECT_ID      = 1994-023A
CENTER_NAME    = EARTH
REF_FRAME      = TEME
TIME_SYSTEM    = UTC
MEAN_ELEMENT_THEORY = SGP/SGP4

EPOCH          = 2026-03-20T21:55:24.918240
MEAN_MOTION    = 14.14378232
ECCENTRICITY   = .00087917
INCLINATION    = 71.0538
RA_OF_ASC_NODE = 151.6180
ARG_OF_PERICENTER = 354.4084
MEAN_ANOMALY   = 5.6939

EPHEMERIS_TYPE = 0
CLASSIFICATION_TYPE = U
NORAD_CAT_ID   = 23087
ELEMENT_SET_NO = 999
REV_AT_EPOCH   = 64639
BSTAR          = -.82846164E-4
MEAN_MOTION_DOT = -.206E-5
MEAN_MOTION_DDOT = 0

CCSDS_OMM_VERS = 2.0
CREATION_DATE  = 
ORIGINATOR     = 

OBJECT_NAME    = SL-16 R/B
OBJECT_ID      = 1994-023B
CENTER_NAME    = EARTH
REF_FRAME      = TEME
TIME_SYSTEM    = UTC
MEAN_ELEMENT_THEORY = SGP/SGP4

EPOCH          = 2026-03-20T22:55:05.685888
MEAN_MOTION    = 14.15010446
ECCENTRICITY   = .00054909
INCLINATION    = 70.9996
RA_OF_ASC_NODE = 47.2268
ARG_OF_PERICENTER = 274.6545
MEAN_ANOMALY   = 85.3950

EPHEMERIS_TYPE = 0
CLASSIFICATION_TYPE = U
NORAD_CAT_ID   = 23088
ELEMENT_SET_NO = 999
REV_AT_EPOCH   = 64768
BSTAR          = .67955479E-4
MEAN_MOTION_DOT = .84E-6
MEAN_MOTION_DDOT = 0

CCSDS_OMM_VERS = 2.0
CREATION_DATE  = 
ORIGINATOR     = 

OBJECT_NAME    = SL-16 R/B
OBJECT_ID      = 1994-074B
CENTER_NAME    = EARTH
REF_FRAME      = TEME
TIME_SYSTEM    = UTC
MEAN_ELEMENT_THEORY = SGP/SGP4

EPOCH          = 2026-03-20T22:53:40.600032
MEAN_MOTION    = 14.79420003
ECCENTRICITY   = .000668
INCLINATION    = 97.7094
RA_OF_ASC_NODE = 110.3149
ARG_OF_PERICENTER = 172.0024
MEAN_ANOMALY   = 252.5735

EPHEMERIS_TYPE = 0
CLASSIFICATION_TYPE = U
NORAD_CAT_ID   = 23343
ELEMENT_SET_NO = 999
REV_AT_EPOCH   = 68891
BSTAR          = .58273048E-4
MEAN_MOTION_DOT = .386E-5
MEAN_MOTION_DDOT = 0

CCSDS_OMM_VERS = 2.0
CREATION_DATE  = 
ORIGINATOR     = 

OBJECT_NAME    = SL-16 R/B
OBJECT_ID      = 1994-077B
CENTER_NAME    = EARTH
REF_FRAME      = TEME
TIME_SYSTEM    = UTC
MEAN_ELEMENT_THEORY = SGP/SGP4

EPOCH          = 2026-03-20T22:22:18.249024
MEAN_MOTION    = 14.15566609
ECCENTRICITY   = .00024334
INCLINATION    = 70.9848
RA_OF_ASC_NODE = 328.8389
ARG_OF_PERICENTER = 200.0078
MEAN_ANOMALY   = 160.0950

EPHEMERIS_TYPE = 0
CLASSIFICATION_TYPE = U
NORAD_CAT_ID   = 23405
ELEMENT_SET_NO = 999
REV_AT_EPOCH   = 61782
BSTAR          = .16422168E-3
MEAN_MOTION_DOT = .274E-5
MEAN_MOTION_DDOT = 0

CCSDS_OMM_VERS = 2.0
CREATION_DATE  = 
ORIGINATOR     = 

OBJECT_NAME    = ARIANE 40+ R/B
OBJECT_ID      = 1995-021B
CENTER_NAME    = EARTH
REF_FRAME      = TEME
TIME_SYSTEM    = UTC
MEAN_ELEMENT_THEORY = SGP/SGP4

EPOCH          = 2026-03-20T10:33:22.969152
MEAN_MOTION    = 14.39779567
ECCENTRICITY   = .00079374
INCLINATION    = 98.4477
RA_OF_ASC_NODE = 150.7758
ARG_OF_PERICENTER = 108.5442
MEAN_ANOMALY   = 262.0067

EPHEMERIS_TYPE = 0
CLASSIFICATION_TYPE = U
NORAD_CAT_ID   = 23561
ELEMENT_SET_NO = 999
REV_AT_EPOCH   = 62079
BSTAR          = .86751902E-4
MEAN_MOTION_DOT = .229E-5
MEAN_MOTION_DDOT = 0

CCSDS_OMM_VERS = 2.0
CREATION_DATE  = 
ORIGINATOR     = 

OBJECT_NAME    = SL-16 R/B
OBJECT_ID      = 1995-058B
CENTER_NAME    = EARTH
REF_FRAME      = TEME
TIME_SYSTEM    = UTC
MEAN_ELEMENT_THEORY = SGP/SGP4

EPOCH          = 2026-03-20T22:33:08.253504
MEAN_MOTION    = 14.15500850
ECCENTRICITY   = .00102494
INCLINATION    = 71.0221
RA_OF_ASC_NODE = 156.6378
ARG_OF_PERICENTER = 105.0048
MEAN_ANOMALY   = 255.2210

EPHEMERIS_TYPE = 0
CLASSIFICATION_TYPE = U
NORAD_CAT_ID   = 23705
ELEMENT_SET_NO = 999
REV_AT_EPOCH   = 56944
BSTAR          = .19016034E-4
MEAN_MOTION_DOT = -.1E-6
MEAN_MOTION_DDOT = 0

CCSDS_OMM_VERS = 2.0
CREATION_DATE  = 
ORIGINATOR     = 

OBJECT_NAME    = SL-16 R/B
OBJECT_ID      = 1996-051B
CENTER_NAME    = EARTH
REF_FRAME      = TEME
TIME_SYSTEM    = UTC
MEAN_ELEMENT_THEORY = SGP/SGP4

EPOCH          = 2026-03-20T12:08:28.901184
MEAN_MOTION    = 14.12418531
ECCENTRICITY   = .00141638
INCLINATION    = 70.7598
RA_OF_ASC_NODE = 152.3468
ARG_OF_PERICENTER = 131.0407
MEAN_ANOMALY   = 229.1940

EPHEMERIS_TYPE = 0
CLASSIFICATION_TYPE = U
NORAD_CAT_ID   = 24298
ELEMENT_SET_NO = 999
REV_AT_EPOCH   = 52317
BSTAR          = .80577666E-4
MEAN_MOTION_DOT = .1E-5
MEAN_MOTION_DDOT = 0

CCSDS_OMM_VERS = 2.0
CREATION_DATE  = 
ORIGINATOR     = 

OBJECT_NAME    = ORBVIEW 2 (SEASTAR)
OBJECT_ID      = 1997-037A
CENTER_NAME    = EARTH
REF_FRAME      = TEME
TIME_SYSTEM    = UTC
MEAN_ELEMENT_THEORY = SGP/SGP4

EPOCH          = 2026-03-20T22:02:55.378464
MEAN_MOTION    = 14.35502369
ECCENTRICITY   = .00027474
INCLINATION    = 98.8585
RA_OF_ASC_NODE = 244.5290
ARG_OF_PERICENTER = 48.1543
MEAN_ANOMALY   = 311.9876

EPHEMERIS_TYPE = 0
CLASSIFICATION_TYPE = U
NORAD_CAT_ID   = 24883
ELEMENT_SET_NO = 999
REV_AT_EPOCH   = 51008
BSTAR          = .92284089E-4
MEAN_MOTION_DOT = .219E-5
MEAN_MOTION_DDOT = 0

CCSDS_OMM_VERS = 2.0
CREATION_DATE  = 
ORIGINATOR     = 

OBJECT_NAME    = SL-16 R/B
OBJECT_ID      = 1998-043G
CENTER_NAME    = EARTH
REF_FRAME      = TEME
TIME_SYSTEM    = UTC
MEAN_ELEMENT_THEORY = SGP/SGP4

EPOCH          = 2026-03-20T21:18:04.928256
MEAN_MOTION    = 14.26052163
ECCENTRICITY   = .00096277
INCLINATION    = 98.8274
RA_OF_ASC_NODE = 33.3315
ARG_OF_PERICENTER = 348.4017
MEAN_ANOMALY   = 11.6939

EPHEMERIS_TYPE = 0
CLASSIFICATION_TYPE = U
NORAD_CAT_ID   = 25400
ELEMENT_SET_NO = 999
REV_AT_EPOCH   = 44058
BSTAR          = .37825004E-4
MEAN_MOTION_DOT = .45E-6
MEAN_MOTION_DDOT = 0

